SWARM A                 
1 39452U 13067B   26176.73619506  .00012564  00000+0  21497-3 0  9992
2 39452  87.3323  53.0649 0003134  96.6861 263.4757 15.51107404707573
SWARM C                 
1 39453U 13067C   26176.80060598  .00011944  00000+0  20434-3 0  9993
2 39453  87.3323  51.6221 0003122  97.2664 262.8952 15.51107069707543
BRITE-CA1 (TORONTO)     
1 40020U 14033L   26176.80261441  .00000804  00000+0  12849-3 0  9993
2 40020  97.9748 305.5721 0077301 248.9383 110.3546 14.72689009643481
OCO 2                   
1 40059U 14035A   26176.80782955  .00000365  00000+0  91076-4 0  9997
2 40059  98.2018 117.9695 0001510  83.7766 276.3604 14.57117692637300
BRITE-PL2 (HEWELIUSZ)   
1 40119U 14049B   26176.54091931  .00001913  00000+0  18180-3 0  9991
2 40119  97.9105 288.6055 0015424  83.0154 277.2819 14.94624267642697
MMS 1                   
1 40482U 15011A   26176.91668980 -.00000752  00000+0  00000+0 0  9998
2 40482  72.2744 348.7069 8319886 167.5811 109.1534  0.28359558  1374
MMS 2                   
1 40483U 15011B   26176.91668980 -.00000752  00000+0  00000+0 0  9999
2 40483  72.2781 348.7060 8322687 167.5843 109.1446  0.28359520  1376
MMS 3                   
1 40484U 15011C   26176.91668980 -.00000751  00000+0  00000+0 0  9999
2 40484  72.2780 348.7178 8321052 167.5918 109.1186  0.28359512  1376
MMS 4                   
1 40485U 15011D   26176.91668980 -.00000751  00000+0  00000+0 0  9990
2 40485  72.2745 348.7010 8320955 167.6016 109.1114  0.28359529  1373
ASTROSAT                
1 40930U 15052A   26176.23154250  .00001534  00000+0  10501-3 0  9995
2 40930   5.9976  97.4359 0007747 153.3235 206.7292 14.82519717581027
DAMPE                   
1 41173U 15078A   26176.79692976  .00001392  00000+0  49275-4 0  9999
2 41173  97.4562 182.3062 0013458  50.9187 309.3249 15.30805649585867
PISAT                   
1 41784U 16059B   26176.79466706  .00000880  00000+0  15727-3 0  9992
2 41784  97.8179 176.8776 0029108 175.0271 185.1230 14.68997047521005
HXMT (HUIYAN)           
1 42758U 17034A   26176.88275571  .00004516  00000+0  22346-3 0  9991
2 42758  43.0129 134.6182 0031919 202.5190 157.4259 15.18528600498981
FLYING LAPTOP           
1 42831U 17042G   26176.85087811  .00006860  00000+0  53664-3 0  9998
2 42831  97.4722 332.0529 0019965  94.0283 266.3224 15.01202832487751
ZHANGHENG 1-01 (CSES-1) 
1 43194U 18015C   26176.88961495  .00008378  00000+0  38047-3 0  9998
2 43194  97.6871 342.7207 0017352 233.9052 126.0576 15.20915749465968
SALSAT                  
1 46495U 20068K   26176.71389502  .00008822  00000+0  30719-3 0  9993
2 46495  97.8851 180.2981 0007800 271.7296  88.3050 15.29911798316664
IXPE                    
1 49954U 21121A   26176.83335647  .00013584  00000+0  74804-3 0  9995
2 49954   0.2304 252.4149 0007446 210.5661  83.6832 15.10323259  5816
SMILE                   
1 69123U 26109A   26158.38327019 -.00000041  00000+0 -36778-3 0  9994
2 69123  69.9787 209.3069 3310191 288.5544  45.7342  7.54049028  2480
