OBJECT_NAME,OBJECT_ID,EPOCH,MEAN_MOTION,ECCENTRICITY,INCLINATION,RA_OF_ASC_NODE,ARG_OF_PERICENTER,MEAN_ANOMALY,EPHEMERIS_TYPE,CLASSIFICATION_TYPE,NORAD_CAT_ID,ELEMENT_SET_NO,REV_AT_EPOCH,BSTAR,MEAN_MOTION_DOT,MEAN_MOTION_DDOT
SWARM A,2013-067B,2026-06-25T17:40:07.253184,15.51107404,.0003134,87.3323,53.0649,96.6861,263.4757,0,U,39452,999,70757,.21497E-3,.12564E-3,0
SWARM C,2013-067C,2026-06-25T19:12:52.356672,15.51107069,.0003122,87.3323,51.6221,97.2664,262.8952,0,U,39453,999,70754,.20434E-3,.11944E-3,0
BRITE-CA1 (TORONTO),2014-033L,2026-06-25T19:15:45.885024,14.72689009,.0077301,97.9748,305.5721,248.9383,110.3546,0,U,40020,999,64348,.12849E-3,.804E-5,0
OCO 2,2014-035A,2026-06-25T19:23:16.473120,14.57117692,.000151,98.2018,117.9695,83.7766,276.3604,0,U,40059,999,63730,.91076E-4,.365E-5,0
BRITE-PL2 (HEWELIUSZ),2014-049B,2026-06-25T12:58:55.428384,14.94624267,.0015424,97.9105,288.6055,83.0154,277.2819,0,U,40119,999,64269,.1818E-3,.1913E-4,0
MMS 1,2015-011A,2026-06-25T22:00:01.998720,0.28359558,.8319886,72.2744,348.7069,167.5811,109.1534,0,U,40482,999,137,0,-.752E-5,0
MMS 2,2015-011B,2026-06-25T22:00:01.998720,0.28359520,.8322687,72.2781,348.7060,167.5843,109.1446,0,U,40483,999,137,0,-.752E-5,0
MMS 3,2015-011C,2026-06-25T22:00:01.998720,0.28359512,.8321052,72.2780,348.7178,167.5918,109.1186,0,U,40484,999,137,0,-.751E-5,0
MMS 4,2015-011D,2026-06-25T22:00:01.998720,0.28359529,.8320955,72.2745,348.7010,167.6016,109.1114,0,U,40485,999,137,0,-.751E-5,0
ASTROSAT,2015-052A,2026-06-25T05:33:25.272000,14.82519717,.0007747,5.9976,97.4359,153.3235,206.7292,0,U,40930,999,58102,.10501E-3,.1534E-4,0
DAMPE,2015-078A,2026-06-25T19:07:34.731264,15.30805649,.0013458,97.4562,182.3062,50.9187,309.3249,0,U,41173,999,58586,.49275E-4,.1392E-4,0
PISAT,2016-059B,2026-06-25T19:04:19.233984,14.68997047,.0029108,97.8179,176.8776,175.0271,185.1230,0,U,41784,999,52100,.15727E-3,.88E-5,0
HXMT (HUIYAN),2017-034A,2026-06-25T21:11:10.093344,15.18528600,.0031919,43.0129,134.6182,202.5190,157.4259,0,U,42758,999,49898,.22346E-3,.4516E-4,0
FLYING LAPTOP,2017-042G,2026-06-25T20:25:15.868704,15.01202832,.0019965,97.4722,332.0529,94.0283,266.3224,0,U,42831,999,48775,.53664E-3,.686E-4,0
ZHANGHENG 1-01 (CSES-1),2018-015C,2026-06-25T21:21:02.731680,15.20915749,.0017352,97.6871,342.7207,233.9052,126.0576,0,U,43194,999,46596,.38047E-3,.8378E-4,0
SALSAT,2020-068K,2026-06-25T17:08:00.529728,15.29911798,.00078,97.8851,180.2981,271.7296,88.3050,0,U,46495,999,31666,.30719E-3,.8822E-4,0
IXPE,2021-121A,2026-06-25T20:00:01.999008,15.10323259,.0007446,0.2304,252.4149,210.5661,83.6832,0,U,49954,999,581,.74804E-3,.13584E-3,0
SMILE,2026-109A,2026-06-07T09:11:54.544416,7.54049028,.3310191,69.9787,209.3069,288.5544,45.7342,0,U,69123,999,248,-.36778157E-3,-.41E-6,0
